NORAD_CAT_ID,OBJECT_NAME,OBJECT_TYPE,EPOCH,MEAN_MOTION,ECCENTRICITY,INCLINATION,RA_OF_ASC_NODE,ARG_OF_PERICENTER,MEAN_ANOMALY,BSTAR,MEAN_MOTION_DOT,MEAN_MOTION_DDOT,TLE_LINE0,TLE_LINE1,TLE_LINE2,SEMIMAJOR_AXIS,PERIOD,APOGEE,PERIGEE,DECAYED
55769.0,STARLINK-5584,PAYLOAD,2024-07-19 16:00:20,14.98335359,0.0003349,70.0004,292.3449,269.2409,90.8366,0.00020339,2.335e-05,0.0,0 STARLINK-5584,1 55769U 23028AE  24201.66690198  .00002335  00000-0  20339-3 0  9994,2 55769  70.0004 292.3449 0003349 269.2409  90.8366 14.98335359 76958,6950.176,96.107,574.369,569.714,0.0
55769.0,STARLINK-5584,PAYLOAD,2024-07-20 04:49:25,14.98329157,0.0003195,70.001,290.9965,270.1657,89.9136,3.8192e-05,3.63e-06,0.0,0 STARLINK-5584,1 55769U 23028AE  24202.20099031  .00000363  00000-0  38192-4 0  9990,2 55769  70.0010 290.9965 0003195 270.1657  89.9136 14.98329157 77029,6950.195,96.107,574.281,569.84,0.0
55769.0,STARLINK-5584,PAYLOAD,2024-07-20 14:26:13,14.98332699,0.000325,70.0004,289.9872,267.478,92.6007,2.6889e-05,2.28e-06,0.0,0 STARLINK-5584,1 55769U 23028AE  24202.60154796  .00000228  00000-0  26889-4 0  9994,2 55769  70.0004 289.9872 0003250 267.4780  92.6007 14.98332699 77095,6950.185,96.107,574.308,569.791,0.0
55769.0,STARLINK-5584,PAYLOAD,2024-07-20 16:02:21,14.98335571,0.0003259,70.0004,289.8189,269.0714,91.0072,2.8125e-05,2.43e-06,0.0,0 STARLINK-5584,1 55769U 23028AE  24202.66830591  .00000243  00000-0  28125-4 0  9996,2 55769  70.0004 289.8189 0003259 269.0714  91.0072 14.98335571 77108,6950.176,96.107,574.306,569.776,0.0
55769.0,STARLINK-5584,PAYLOAD,2024-07-21 04:51:26,14.98329101,0.0003093,70.0008,288.4723,270.2908,89.7896,-6.1545e-05,-8.27e-06,0.0,0 STARLINK-5584,1 55769U 23028AE  24203.20239150 -.00000827  00000-0 -61545-4 0  9994,2 55769  70.0008 288.4723 0003093 270.2908  89.7896 14.98329101 77173,6950.196,96.107,574.21,569.911,0.0
55769.0,STARLINK-5584,PAYLOAD,2024-07-21 14:28:14,14.98332011,0.0003215,70.0006,287.4625,271.2787,88.8004,-7.3527e-05,-9.7e-06,0.0,0 STARLINK-5584,1 55769U 23028AE  24203.60294983 -.00000970  00000-0 -73527-4 0  9995,2 55769  70.0006 287.4625 0003215 271.2787  88.8004 14.98332011 77246,6950.187,96.107,574.286,569.817,0.0
55769.0,STARLINK-5584,PAYLOAD,2024-07-21 16:04:22,14.98331281,0.0003105,70.0009,287.2941,269.8488,90.2316,-2.5262e-05,-3.94e-06,0.0,0 STARLINK-5584,1 55769U 23028AE  24203.66970910 -.00000394  00000-0 -25262-4 0  9995,2 55769  70.0009 287.2941 0003105 269.8488  90.2316 14.98331281 77259,6950.189,96.107,574.212,569.896,0.0
55769.0,STARLINK-5584,PAYLOAD,2024-07-22 09:41:51,14.98306417,0.0003213,70.0009,285.4437,268.5456,91.5335,0.00042594,4.99e-05,0.0,0 STARLINK-5584,1 55769U 23028AE  24204.40407296  .00004990  00000-0  42594-3 0  9990,2 55769  70.0009 285.4437 0003213 268.5456  91.5335 14.98306417 77359,6950.266,96.109,574.364,569.898,0.0
55769.0,STARLINK-5584,PAYLOAD,2024-07-23 04:55:27,14.98331549,0.0003182,70.0006,283.4236,265.6913,94.3883,6.1289e-05,6.38e-06,0.0,0 STARLINK-5584,1 55769U 23028AE  24205.20518477  .00000638  00000-0  61289-4 0  9991,2 55769  70.0006 283.4236 0003182 265.6913  94.3883 14.98331549 77478,6950.188,96.107,574.265,569.842,0.0
55769.0,STARLINK-5584,PAYLOAD,2024-07-23 09:43:52,14.98329404,0.0003203,70.0005,282.9186,265.5869,94.4924,3.3434e-05,3.06e-06,0.0,0 STARLINK-5584,1 55769U 23028AE  24205.40546670  .00000306  00000-0  33434-4 0  9992,2 55769  70.0005 282.9186 0003203 265.5869  94.4924 14.98329404 77517,6950.195,96.107,574.286,569.834,0.0
55769.0,STARLINK-5584,PAYLOAD,2024-07-24 04:57:29,14.98326624,0.0003331,69.9994,280.8972,266.0153,94.0626,-6.6347e-05,-8.85e-06,0.0,0 STARLINK-5584,1 55769U 23028AE  24206.20659249 -.00000885  00000-0 -66347-4 0  9991,2 55769  69.9994 280.8972 0003331 266.0153  94.0626 14.98326624 77623,6950.203,96.107,574.383,569.753,0.0
55769.0,STARLINK-5584,PAYLOAD,2024-07-24 14:34:17,14.98327828,0.0003358,69.9993,279.8872,265.3683,94.7093,-4.4828e-05,-6.28e-06,0.0,0 STARLINK-5584,1 55769U 23028AE  24206.60715180 -.00000628  00000-0 -44828-4 0  9997,2 55769  69.9993 279.8872 0003358 265.3683  94.7093 14.98327828 77697,6950.2,96.107,574.398,569.731,0.0
55769.0,STARLINK-5584,PAYLOAD,2024-07-25 04:59:29,14.9833159,0.0003569,69.9986,278.3713,268.2983,91.7767,6.4342e-05,6.75e-06,0.0,0 STARLINK-5584,1 55769U 23028AE  24207.20798555  .00000675  00000-0  64342-4 0  9994,2 55769  69.9986 278.3713 0003569 268.2983  91.7767 14.98331590 77771,6950.188,96.107,574.533,569.572,0.0
55769.0,STARLINK-5584,PAYLOAD,2024-07-25 06:35:37,14.98332865,0.0003539,69.9986,278.2027,267.7262,92.3492,7.6863e-05,8.24e-06,0.0,0 STARLINK-5584,1 55769U 23028AE  24207.27474431  .00000824  00000-0  76863-4 0  9992,2 55769  69.9986 278.2027 0003539 267.7262  92.3492 14.98332865 77799,6950.184,96.107,574.509,569.589,0.0
55769.0,STARLINK-5584,PAYLOAD,2024-07-25 09:47:54,14.98332904,0.0003542,69.9987,277.8664,267.8937,92.1816,7.5699e-05,8.1e-06,0.0,0 STARLINK-5584,1 55769U 23028AE  24207.40826413  .00000810  00000-0  75699-4 0  9999,2 55769  69.9987 277.8664 0003542 267.8937  92.1816 14.98332904 77811,6950.184,96.107,574.511,569.587,0.0
55769.0,STARLINK-5584,PAYLOAD,2024-07-26 05:01:30,14.98330672,0.0003435,69.9988,275.8467,264.642,95.4347,7.7144e-05,8.28e-06,0.0,0 STARLINK-5584,1 55769U 23028AE  24208.20938354  .00000828  00000-0  77144-4 0  9992,2 55769  69.9988 275.8467 0003435 264.6420  95.4347 14.98330672 77921,6950.191,96.107,574.443,569.668,0.0
55769.0,STARLINK-5584,PAYLOAD,2024-07-26 09:49:54,14.98330975,0.0003434,69.9987,275.3418,264.8717,95.205,7.49e-05,8.01e-06,0.0,0 STARLINK-5584,1 55769U 23028AE  24208.40966317  .00000801  00000-0  74900-4 0  9992,2 55769  69.9987 275.3418 0003434 264.8717  95.2050 14.98330975 77960,6950.19,96.107,574.442,569.668,0.0
55769.0,STARLINK-5584,PAYLOAD,2024-07-26 11:26:02,14.98333797,0.0003505,69.9989,275.1748,267.2539,92.8219,0.00010028,1.104e-05,0.0,0 STARLINK-5584,1 55769U 23028AE  24208.47642075  .00001104  00000-0  10028-3 0  9998,2 55769  69.9989 275.1748 0003505 267.2539  92.8219 14.98333797 77970,6950.181,96.107,574.482,569.61,0.0
55769.0,STARLINK-5584,PAYLOAD,2024-07-27 05:03:31,14.9833476,0.0003241,69.9993,273.323,269.2813,90.7975,-3.7094e-05,-5.36e-06,0.0,0 STARLINK-5584,1 55769U 23028AE  24209.21078201 -.00000536  00000-0 -37094-4 0  9998,2 55769  69.9993 273.3230 0003241 269.2813  90.7975 14.98334760 78074,6950.178,96.107,574.296,569.791,0.0
55769.0,STARLINK-5584,PAYLOAD,2024-07-27 06:39:39,14.98334177,0.0003257,69.9992,273.1547,269.1123,90.9663,-4.3889e-05,-6.17e-06,0.0,0 STARLINK-5584,1 55769U 23028AE  24209.27754227 -.00000617  00000-0 -43889-4 0  9992,2 55769  69.9992 273.1547 0003257 269.1123  90.9663 14.98334177 78092,6950.18,96.107,574.309,569.781,0.0
55769.0,STARLINK-5584,PAYLOAD,2024-07-27 09:51:55,14.98334325,0.0003248,69.9993,272.818,269.2604,90.8182,-3.9592e-05,-5.65e-06,0.0,0 STARLINK-5584,1 55769U 23028AE  24209.41106164 -.00000565  00000-0 -39592-4 0  9997,2 55769  69.9993 272.8180 0003248 269.2604  90.8182 14.98334325 78110,6950.18,96.107,574.302,569.787,0.0
55769.0,STARLINK-5584,PAYLOAD,2024-07-28 05:05:32,14.98331028,0.0003232,69.999,270.7981,269.4196,90.6593,-3.7743e-05,-5.43e-06,0.0,0 STARLINK-5584,1 55769U 23028AE  24210.21218189 -.00000543  00000-0 -37743-4 0  9990,2 55769  69.9990 270.7981 0003232 269.4196  90.6593 14.98331028 78227,6950.19,96.107,574.301,569.808,0.0
55769.0,STARLINK-5584,PAYLOAD,2024-07-28 13:06:12,14.98330342,0.0003298,69.9991,269.9581,264.0441,96.0343,-5.4662e-05,-7.45e-06,0.0,0 STARLINK-5584,1 55769U 23028AE  24210.54598213 -.00000745  00000-0 -54662-4 0  9998,2 55769  69.9991 269.9581 0003298 264.0441  96.0343 14.98330342 78287,6950.192,96.107,574.349,569.765,0.0
55769.0,STARLINK-5584,PAYLOAD,2024-07-29 05:07:33,14.98327383,0.0003297,69.999,268.2742,266.7157,93.3625,-1.6104e-05,-2.85e-06,0.0,0 STARLINK-5584,1 55769U 23028AE  24211.21358324 -.00000285  00000-0 -16104-4 0  9998,2 55769  69.9990 268.2742 0003297 266.7157  93.3625 14.98327383 78373,6950.201,96.107,574.357,569.775,0.0
55769.0,STARLINK-5584,PAYLOAD,2024-07-29 09:55:57,14.98327516,0.0003366,69.9988,267.7685,269.1991,90.8782,-1.1694e-05,-2.33e-06,0.0,0 STARLINK-5584,1 55769U 23028AE  24211.41386341 -.00000233  00000-0 -11694-4 0  9992,2 55769  69.9988 267.7685 0003366 269.1991  90.8782 14.98327516 78419,6950.201,96.107,574.405,569.726,0.0
55769.0,STARLINK-5584,PAYLOAD,2024-07-30 05:09:34,14.98327033,0.000339,69.9986,265.7481,268.3765,91.7005,9.9953e-06,2.6e-07,0.0,0 STARLINK-5584,1 55769U 23028AE  24212.21498407  .00000026  00000-0  99953-5 0  9991,2 55769  69.9986 265.7481 0003390 268.3765  91.7005 14.98327033 78520,6950.202,96.107,574.423,569.711,0.0
55769.0,STARLINK-5584,PAYLOAD,2024-07-30 09:57:58,14.9832875,0.0003417,69.9985,265.243,267.8392,92.2376,2.642e-05,2.22e-06,0.0,0 STARLINK-5584,1 55769U 23028AE  24212.41526278  .00000222  00000-0  26420-4 0  9997,2 55769  69.9985 265.2430 0003417 267.8392  92.2376 14.98328750 78566,6950.197,96.107,574.437,569.687,0.0
55769.0,STARLINK-5584,PAYLOAD,2024-07-30 21:10:55,14.98328968,0.0003568,69.9979,264.0635,268.3442,91.7308,4.7823e-05,4.78e-06,0.0,0 STARLINK-5584,1 55769U 23028AE  24212.88258193  .00000478  00000-0  47823-4 0  9999,2 55769  69.9979 264.0635 0003568 268.3442  91.7308 14.98328968 78630,6950.196,96.107,574.541,569.581,0.0
55769.0,STARLINK-5584,PAYLOAD,2024-07-31 05:11:35,14.98328354,0.000347,69.9978,263.2215,267.3221,92.754,7.1781e-06,-7e-08,0.0,0 STARLINK-5584,1 55769U 23028AE  24213.21638401 -.00000007  00000-0  71781-5 0  9991,2 55769  69.9978 263.2215 0003470 267.3221  92.7540 14.98328354 78672,6950.198,96.107,574.475,569.651,0.0
55769.0,STARLINK-5584,PAYLOAD,2024-07-31 13:12:15,14.98329469,0.0003525,69.998,262.3814,269.4624,90.6131,2.3984e-05,1.93e-06,0.0,0 STARLINK-5584,1 55769U 23028AE  24213.55018334  .00000193  00000-0  23984-4 0  9991,2 55769  69.9980 262.3814 0003525 269.4624  90.6131 14.98329469 78739,6950.195,96.107,574.509,569.61,0.0
